OBJECT_NAME,OBJECT_ID,EPOCH,MEAN_MOTION,ECCENTRICITY,INCLINATION,RA_OF_ASC_NODE,ARG_OF_PERICENTER,MEAN_ANOMALY,EPHEMERIS_TYPE,CLASSIFICATION_TYPE,NORAD_CAT_ID,ELEMENT_SET_NO,REV_AT_EPOCH,BSTAR,MEAN_MOTION_DOT,MEAN_MOTION_DDOT
STARLINK-34403,2025-130F,2026-07-16T08:13:02.953056,15.30201319,.000161,53.1564,210.7240,84.5668,275.5516,0,U,64443,999,6040,.22115E-3,.6196E-4,0
STARLINK-34399,2025-130G,2026-07-16T09:59:44.765376,15.34392751,.0001373,53.1571,208.3520,72.3334,287.7818,0,U,64444,999,6044,.91484E-4,.2715E-4,0
STARLINK-34398,2025-130H,2026-07-16T07:42:49.360896,15.30216253,.0001157,53.1569,211.3062,112.2300,247.8824,0,U,64445,999,6039,.23128E-3,.65E-4,0
STARLINK-34402,2025-130J,2026-07-16T11:09:00.063648,15.30204587,.0001184,53.1561,210.0684,89.9824,270.1312,0,U,64446,999,6042,.20179E-3,.5623E-4,0
STARLINK-34450,2025-130K,2026-07-16T08:02:30.954336,15.34391546,.0001349,53.1579,210.6811,78.9868,281.1287,0,U,64447,999,6040,.84913E-4,.2493E-4,0
STARLINK-34433,2025-130L,2026-07-16T20:00:01.999008,15.34354691,.0000624,53.1590,208.7875,52.1307,320.9971,0,U,64448,999,585,.10385E-2,.34825E-3,0
STARLINK-34459,2025-130M,2026-07-16T07:58:49.861056,15.34382122,.0001025,53.1566,209.2484,104.2663,255.8454,0,U,64449,999,6042,.25268E-3,.8165E-4,0
STARLINK-34361,2025-130N,2026-07-16T07:16:23.246112,15.34401994,.0001294,53.1571,209.0644,74.6276,285.4870,0,U,64450,999,6159,.28408E-3,.9234E-4,0
STARLINK-34392,2025-130P,2026-07-16T20:00:01.999008,15.34113207,.0002467,53.1597,208.8756,322.1908,4.8574,0,U,64451,999,585,.3039E-2,.102776E-2,0
STARLINK-34367,2025-130Q,2026-07-16T20:00:01.999008,15.34374623,.0001585,53.1574,208.3276,101.4584,144.1946,0,U,64452,999,581,.89768E-3,.30051E-3,0
STARLINK-34221,2025-130R,2026-07-16T09:56:42.602208,15.34396683,.0001128,53.1571,208.3401,86.0690,274.0442,0,U,64453,999,6044,.18825E-3,.5989E-4,0
STARLINK-34282,2025-130S,2026-07-16T10:48:31.269024,15.31706641,.0001205,53.1574,212.1097,83.1880,276.9258,0,U,64454,999,6039,.13944E-3,.3965E-4,0
STARLINK-34295,2025-130T,2026-07-16T07:01:14.401920,15.34390666,.0001326,53.1575,208.9994,88.8840,271.2314,0,U,64455,999,6042,.89929E-4,.2662E-4,0
STARLINK-34430,2025-130U,2026-07-16T06:34:26.598144,15.30196197,.0001093,53.1572,211.0048,102.1604,257.9520,0,U,64456,999,6039,.19146E-3,.5315E-4,0
STARLINK-34445,2025-130V,2026-07-16T08:32:00.294144,15.34402603,.0001353,53.1582,208.6784,81.7082,278.4074,0,U,64457,999,6043,.239E-3,.7708E-4,0
STARLINK-34439,2025-130W,2026-07-16T20:00:01.999008,15.33534117,.0001389,53.1582,208.3825,85.9782,130.0442,0,U,64458,999,590,.88338E-3,.28778E-3,0
STARLINK-34421,2025-130X,2026-07-16T06:43:04.628352,15.34393058,.0001313,53.1571,208.9183,79.7807,280.3344,0,U,64459,999,6042,.27583E-3,.8952E-4,0
STARLINK-34423,2025-130Y,2026-07-16T06:31:24.743424,15.30178587,.0001216,53.1563,210.9900,101.1416,258.9722,0,U,64460,999,6039,.18929E-3,.5247E-4,0
STARLINK-34418,2025-130Z,2026-07-16T08:11:36.417408,15.34386797,.0000857,53.1581,210.7156,76.6622,283.4476,0,U,64461,999,6040,.58093E-4,.1586E-4,0
STARLINK-34336,2025-130AA,2026-07-16T11:08:40.296192,15.31702737,.0001205,53.1561,212.1279,90.6960,269.4180,0,U,64462,999,6039,.80277E-4,.2127E-4,0
STARLINK-34400,2025-130AB,2026-07-16T10:15:03.212064,15.31701681,.0000935,53.1571,212.6685,84.9424,275.1684,0,U,64463,999,6038,.15725E-3,.4518E-4,0
STARLINK-34429,2025-130AC,2026-07-16T06:46:05.320992,15.34393706,.0001315,53.1573,208.9272,93.2043,266.9110,0,U,64464,999,6042,.13328E-3,.4128E-4,0
STARLINK-34449,2025-130AD,2026-07-16T10:48:12.923712,15.34398116,.0001071,53.1563,208.5523,86.8445,273.2680,0,U,64465,999,6044,.16112E-3,.5071E-4,0
STARLINK-34493,2025-133A,2026-07-16T14:34:36.653952,15.34401176,.000092,53.1566,237.4730,75.7473,284.3631,0,U,64472,999,6093,.20338E-3,.6502E-4,0
STARLINK-34492,2025-133B,2026-07-16T11:45:11.928960,15.34402364,.0001036,53.1568,238.1579,86.3018,273.8103,0,U,64473,999,6091,.24228E-3,.7819E-4,0
STARLINK-34474,2025-133C,2026-07-16T20:00:01.999008,15.34402127,.0001093,53.1580,236.9193,92.3753,180.9273,0,U,64474,999,580,-.58442E-3,-.20071E-3,0
STARLINK-34523,2025-133D,2026-07-16T08:42:59.838048,15.34387119,.0000864,53.1571,235.2423,81.2840,278.8260,0,U,64475,999,6092,.18239E-3,.5789E-4,0
STARLINK-34496,2025-133E,2026-07-16T11:44:32.768160,15.34391144,.0001356,53.1573,234.6069,65.9201,294.1943,0,U,64476,999,6095,.31835E-3,.10392E-3,0
STARLINK-34375,2025-133F,2026-07-16T11:35:25.597824,15.34404126,.000128,53.1568,234.5673,72.3503,287.7639,0,U,64477,999,6096,.23407E-3,.7541E-4,0
STARLINK-34490,2025-133G,2026-07-16T09:50:11.529024,15.34403338,.000068,53.1579,238.3714,67.9568,292.1506,0,U,64478,999,6090,.26086E-3,.8448E-4,0
STARLINK-34528,2025-133H,2026-07-16T11:32:23.557344,15.34400948,.0001095,53.1566,234.5537,71.5515,288.5606,0,U,64479,999,6094,.23065E-3,.7425E-4,0
STARLINK-34518,2025-133J,2026-07-16T20:00:01.999008,15.34395329,.0000498,53.1579,236.5278,74.7241,36.2546,0,U,64480,999,591,-.37281E-3,-.12948E-3,0
STARLINK-34526,2025-133K,2026-07-16T10:30:32.730048,15.30202782,.0001147,53.1577,238.5418,68.6141,291.4982,0,U,64481,999,6079,.21801E-3,.6104E-4,0
STARLINK-34527,2025-133L,2026-07-16T20:00:01.999008,15.34399416,.0000446,53.1575,236.3658,15.6004,176.7829,0,U,64482,999,586,-.52381E-3,-.18031E-3,0
STARLINK-34420,2025-133M,2026-07-16T20:00:01.999008,15.34394647,.0001811,53.1571,236.4325,70.2053,87.3128,0,U,64483,999,585,-.40623E-3,-.14074E-3,0
STARLINK-34509,2025-133N,2026-07-16T13:12:55.952640,15.34405753,.0001272,53.1569,237.8281,65.7856,294.3280,0,U,64484,999,6092,.27441E-3,.8908E-4,0
STARLINK-34409,2025-133P,2026-07-16T12:51:43.482816,15.34402040,.0000915,53.1562,237.7331,79.4336,280.6770,0,U,64485,999,6092,.23369E-3,.7528E-4,0
STARLINK-34520,2025-133Q,2026-07-16T11:36:06.274080,15.34405925,.0001004,53.1570,238.1158,70.4263,289.6847,0,U,64486,999,6091,.28305E-3,.9201E-4,0
STARLINK-34477,2025-133R,2026-07-16T12:15:29.447136,15.34411374,.0000448,53.1588,238.2854,73.9276,286.1776,0,U,64487,999,6090,.4501E-3,.14867E-3,0
STARLINK-34217,2025-133S,2026-07-16T20:00:01.999008,15.33976658,.0003121,53.1580,236.9802,210.8944,28.3513,0,U,64488,999,585,.18239E-2,.60927E-3,0
STARLINK-34307,2025-133T,2026-07-16T12:50:12.120000,15.30188681,.000097,53.1568,238.4324,85.7287,274.3825,0,U,64489,999,6089,.25325E-3,.7146E-4,0
STARLINK-34505,2025-133U,2026-07-16T09:37:31.087200,15.30205262,.0000981,53.1575,239.0176,80.8992,279.2120,0,U,64490,999,6087,.21215E-3,.593E-4,0
STARLINK-34530,2025-133V,2026-07-16T08:39:57.144384,15.34388440,.0000922,53.1571,235.2213,97.1999,262.9108,0,U,64491,999,6091,.69901E-4,.1986E-4,0
STARLINK-34522,2025-133W,2026-07-16T10:07:40.990080,15.34401470,.0000987,53.1572,234.8910,108.4327,251.6783,0,U,64492,999,6095,.25951E-3,.8402E-4,0
STARLINK-34462,2025-133X,2026-07-16T11:38:28.303584,15.34377490,.0001015,53.1576,234.5727,45.8672,314.2414,0,U,64493,999,6096,.28119E-3,.9129E-4,0
STARLINK-34226,2025-133Y,2026-07-16T09:44:03.905664,15.31707733,.0000951,53.1557,238.3366,84.5836,275.5274,0,U,64494,999,6073,.19587E-3,.5719E-4,0
STARLINK-34364,2025-133Z,2026-07-16T08:51:54.565056,15.34398612,.0000777,53.1572,234.5440,1.3693,358.7311,0,U,64495,999,6095,.40901E-3,.13467E-3,0
STARLINK-34363,2025-133AB,2026-07-16T11:29:22.354080,15.34394199,.0001238,53.1567,234.5324,84.1794,275.9350,0,U,64497,999,6096,.22327E-3,.7173E-4,0
STARLINK-34427,2025-133AC,2026-07-16T20:00:01.999008,15.34399800,.0000946,53.1567,236.4507,86.2733,59.5903,0,U,64498,999,585,-.42654E-3,-.14759E-3,0
STARLINK-34280,2025-137A,2026-07-16T20:00:01.999008,15.34401940,.0001272,53.1595,94.4784,88.4914,147.1501,0,U,64594,999,586,-.47517E-3,-.16397E-3,0
STARLINK-34517,2025-137B,2026-07-15T23:57:57.602304,15.34399191,.00012988,53.1597,98.2574,78.7729,281.3419,0,U,64595,999,6039,.22281463E-3,.7159E-4,0
STARLINK-34510,2025-137C,2026-07-16T03:32:49.626240,15.34417719,.00006321,53.1586,97.7709,106.5395,253.5677,0,U,64596,999,6041,.58486252E-3,.19447E-3,0
STARLINK-34486,2025-137D,2026-07-16T17:09:47.675232,15.30197780,.0001552,53.1606,96.3272,88.6617,271.4562,0,U,64597,999,6048,.33424E-3,.9552E-4,0
STARLINK-34463,2025-137E,2026-07-16T17:12:44.943840,15.34395830,.0001382,53.1590,94.9194,84.4700,275.6461,0,U,64598,999,6050,.6278E-3,.20891E-3,0
STARLINK-34294,2025-137F,2026-07-16T17:27:53.957376,15.34392915,.0001559,53.1591,94.9916,101.1672,258.9506,0,U,64599,999,6050,.36893E-3,.12106E-3,0
STARLINK-34504,2025-137G,2026-07-16T03:00:16.274304,15.30204024,.00012009,53.1596,99.0453,79.3057,280.8079,0,U,64600,999,6039,.30126445E-3,.8575E-4,0
STARLINK-34508,2025-137H,2026-07-16T00:20:52.904544,15.30202306,.000241,53.1584,99.0658,99.5642,260.5631,0,U,64601,999,6038,.41373168E-3,.11915E-3,0
STARLINK-34435,2025-137J,2026-07-16T09:57:05.181120,15.34413605,.0001024,53.1594,96.5911,87.7803,272.3316,0,U,64602,999,6045,.49943E-3,.16542E-3,0
STARLINK-34475,2025-137K,2026-07-16T03:31:23.714400,15.33558781,.00012814,53.1589,97.7608,98.5009,261.6139,0,U,64603,999,6041,.23446521E-3,.7348E-4,0
STARLINK-34488,2025-137L,2026-07-16T00:16:18.963840,15.30208706,.00011281,53.1582,99.0453,85.6426,274.4704,0,U,64604,999,6038,.41060496E-3,.11824E-3,0
STARLINK-34516,2025-137M,2026-07-16T16:50:25.444896,15.31705163,.000151,53.1587,94.8274,79.4528,280.6644,0,U,64605,999,6060,.31293E-3,.9359E-4,0
STARLINK-34073,2025-137N,2026-07-16T17:24:48.568032,15.30210952,.0001477,53.1583,95.6771,93.7076,266.4093,0,U,64606,999,6037,.78089E-3,.22847E-3,0
STARLINK-34532,2025-137P,2026-07-16T03:14:44.447424,15.34403142,.00011861,53.1593,107.6289,101.5461,258.5675,0,U,64607,999,6027,.27820639E-3,.9036E-4,0
STARLINK-34519,2025-137Q,2026-07-16T17:43:02.576064,15.34399865,.0001259,53.1592,95.0551,95.9162,264.1984,0,U,64608,999,6050,.59506E-3,.19782E-3,0
STARLINK-34513,2025-137R,2026-07-16T02:50:31.806816,15.34401993,.00007948,53.1607,98.2922,61.1211,298.9871,0,U,64609,999,6049,.29910416E-3,.9743E-4,0
